OBJECT_NAME,OBJECT_ID,EPOCH,MEAN_MOTION,ECCENTRICITY,INCLINATION,RA_OF_ASC_NODE,ARG_OF_PERICENTER,MEAN_ANOMALY,EPHEMERIS_TYPE,CLASSIFICATION_TYPE,NORAD_CAT_ID,ELEMENT_SET_NO,REV_AT_EPOCH,BSTAR,MEAN_MOTION_DOT,MEAN_MOTION_DDOT
OPS 6582 (TRANSIT 5B-5),1964-083D,2026-07-09T01:23:46.752864,13.57014823,.00404564,90.0755,203.2144,211.4406,168.1320,0,U,965,999,4658,.39475554E-4,.37E-6,0
LES-1,1965-008C,2026-07-08T18:22:00.123744,9.88354818,.00153979,32.1484,353.5941,347.3731,12.6379,0,U,1002,999,21832,-.39667688E-3,.5E-7,0
SOLRAD 7B,1965-016D,2026-07-08T16:40:04.083744,13.94978074,.00183716,70.0771,190.5386,93.2090,267.1118,0,U,1291,999,11970,.40772438E-4,.3E-7,0
SECOR 4 (EGRS 4),1965-027B,2026-07-09T18:42:19.180224,12.92668074,.0032262,90.2488,16.0857,138.9900,281.0937,0,U,1315,999,88984,-.13151E-3,-.28E-6,0
TIROS 10,1965-051A,2026-07-09T06:04:14.149056,14.41638508,.00554828,98.5060,309.4891,14.0677,346.2042,0,U,1430,999,19909,.36567633E-4,.76E-6,0
ALOUETTE 2,1965-098A,2026-07-09T03:46:11.227296,12.28370450,.13305651,79.7979,257.9590,187.9668,169.8222,0,U,1804,999,68197,.15534564E-3,.483E-5,0
OV3-3,1966-070A,2026-07-09T17:47:29.938272,13.46146190,.1009232,81.3264,311.1054,99.1568,272.4975,0,U,2389,999,60200,.50718E-3,.11495E-3,0
SECOR 7 (EGRS 7),1966-077B,2026-07-07T05:33:45.644256,8.59615285,.00113421,90.3367,277.6765,40.1785,319.9904,0,U,2411,999,87910,-.12855439E-2,-.1E-7,0
ERS 15,1966-077C,2026-07-08T04:12:32.860512,8.59079516,.00068846,90.3371,277.4806,49.4520,310.6930,0,U,2412,999,39226,0,.2E-7,0
ISIS 1,1969-009A,2026-07-09T14:03:40.006080,11.30436107,.1707034,88.4448,141.9397,202.9797,148.5125,0,U,3669,999,36230,.32127E-4,.53E-6,0
SECOR 13 (EGRS 13),1969-037B,2026-07-08T22:11:12.160320,13.42977737,.00392049,99.6457,60.4649,196.8816,232.4690,0,U,3891,999,80467,.6177744E-5,-.39E-6,0
ATS 5,1969-069A,2026-07-09T19:09:20.303424,0.99487070,.0005209,0.2853,141.1226,135.2006,16.7684,0,U,4068,999,4655,0,.39E-6,0
OPS 7613 (P/L 4),1969-082E,2026-07-09T00:56:32.732736,13.95999796,.00179879,70.0147,57.2099,103.2745,46.6088,0,U,4237,999,88935,.29919224E-4,-.12E-6,0
OPS 7613 (P/L 1),1969-082B,2026-07-09T04:23:52.624608,13.99202797,.00181507,70.0099,277.7619,29.6903,330.5231,0,U,4256,999,89354,.57831261E-4,.31E-6,0
SHINSEI (MS-F2),1971-080A,2026-07-08T11:36:35.529984,12.74254121,.06398903,32.0568,10.9765,179.9329,180.1417,0,U,5485,999,55197,.84087483E-4,.7E-6,0
PROSPERO (BLACK ARROW),1971-093A,2026-07-09T05:10:03.374976,14.01679129,.05016801,82.0380,271.4931,163.8364,197.9498,0,U,5580,999,75161,.34161142E-3,.1619E-4,0
OPS 7898 (P/L 2),1971-110C,2026-07-09T06:55:59.039328,13.74760575,.00066089,69.9910,317.3074,159.4617,200.6745,0,U,5680,999,35125,.33073504E-4,-.19E-6,0
NOAA 2 (ITOS-D),1972-082A,2026-07-09T01:35:12.579648,12.53215688,.00045212,102.0073,208.8771,125.8403,252.1592,0,U,6235,999,45769,.64528924E-4,-.36E-6,0
OSCAR 7 (AO-7),1974-089B,2026-07-09T07:53:43.179072,12.53698424,.00126631,101.9902,203.8062,89.1895,342.2557,0,U,7530,999,36329,.49724075E-4,-.38E-6,0
TIROS N,1978-096A,2026-07-09T01:28:40.716768,14.19381243,.00105364,98.4528,210.1235,172.2384,187.8958,0,U,11060,999,68185,.4743593E-4,.58E-6,0
PHASE 3B (AO-10),1983-058B,2026-07-08T05:57:58.960512,2.05869766,.60038265,25.9305,216.0918,121.4539,310.7883,0,U,14129,999,29592,0,.202E-5,0
HILAT,1983-063A,2026-07-09T15:43:12.259200,14.38725502,.0038139,82.0251,140.1396,221.0607,312.6641,0,U,14154,999,25081,.71169E-4,.236E-5,0
UOSAT 2 (UO-11),1984-021B,2026-07-09T16:56:58.956288,14.90840274,.0009168,97.8072,156.0317,106.4358,253.7868,0,U,14781,999,26048,.98723E-4,.917E-5,0
NOAA 9,1984-123A,2026-07-09T17:46:41.542176,14.17073939,.0013594,99.0983,217.9008,287.3152,203.4977,0,U,15427,999,14661,.42523E-4,.39E-6,0
GEOSAT,1985-021A,2026-07-09T05:46:12.119520,14.39977098,.00017281,108.0410,127.3378,295.6619,64.4345,0,U,15595,999,16594,.61072519E-4,.56E-6,0
EUTELSAT 1-F4 (ECS 4),1987-078B,2026-07-09T14:31:34.978944,0.98691051,.0010141,13.8123,341.9687,46.5777,300.3031,0,U,18351,999,12697,0,-.178E-5,0
PACSAT (AO-16),1990-005D,2026-07-09T01:51:10.139616,14.33943450,.00109367,98.8513,226.2691,161.8631,225.4642,0,U,20439,999,90507,.39803557E-4,.65E-6,0
LUSAT (LO-19),1990-005G,2026-07-09T00:28:07.216608,14.34129510,.00123077,98.8846,212.4261,138.2781,221.9344,0,U,20442,999,90552,.37536928E-4,.58E-6,0
IRS-1B,1991-061A,2026-07-09T18:13:18.729120,13.97874918,.0023352,99.4110,199.2685,303.1047,230.2294,0,U,21688,999,67164,.95005E-4,.88E-6,0
COSMOS 2197,1992-042A,2026-07-09T01:31:23.731104,12.64252501,.00118422,82.5918,214.9558,219.7757,168.2446,0,U,22034,999,56805,.94446951E-4,.28E-6,0
PEGASUS R/B,1993-009C,2026-07-09T15:24:00.224928,14.57997064,.004398,24.9786,308.7132,349.4953,10.4639,0,U,22491,999,77291,.79296E-4,.58E-5,0
EYESAT A (AO-27),1993-061C,2026-07-09T03:58:35.219424,14.30948062,.00090814,98.6870,257.5702,42.3993,317.7889,0,U,22825,999,71014,.33846407E-4,.44E-6,0
ITAMSAT (IO-26),1993-061D,2026-07-09T03:19:29.664192,14.31375523,.00093147,98.6818,257.4628,26.5022,333.6635,0,U,22826,999,71045,.31710822E-4,.39E-6,0
RADIO ROSTO (RS15),1994-085A,2026-07-09T19:41:21.529248,11.27583503,.0156721,64.8161,266.6132,359.6983,0.3824,0,U,23439,999,29845,.15634E-3,-.37E-6,0
JAS-2 (FO-29),1996-046B,2026-07-09T01:08:21.204960,13.53275148,.0350601,98.5224,35.9232,39.8653,322.7685,0,U,24278,999,47612,.35079079E-4,.1E-7,0
FORTE,1997-047A,2026-07-08T19:26:27.817152,14.27953747,.00244889,69.9546,325.1792,251.2143,108.6323,0,U,24920,999,50177,.69989927E-4,.116E-5,0
NOAA 15,1998-030A,2026-07-09T06:29:14.714016,14.27153199,.00090227,98.5063,210.3058,284.5722,75.4458,0,U,25338,999,46444,.58587944E-4,.1E-5,0
TECHSAT 1B (GO-32),1998-043D,2026-07-09T16:22:56.830080,14.24432637,.0002038,99.0080,184.0097,123.5145,236.6227,0,U,25397,999,45453,.34171E-4,.32E-6,0
ISS (ZARYA),1998-067A,2026-07-09T16:50:48.208704,15.48959671,.0006668,51.6304,188.6620,275.8666,84.1562,0,U,25544,999,57524,.1058E-3,.5376E-4,0
ORSTED,1999-008B,2026-07-08T14:46:52.889952,14.51827687,.01333897,96.4810,92.2620,117.5988,243.8831,0,U,25635,999,44507,.98462665E-4,.414E-5,0
LANDSAT 7,1999-020A,2026-07-09T21:04:33.182112,14.63935882,.0001651,97.8586,193.4743,78.9581,37.7874,0,U,25682,999,44916,.57417E-4,.256E-5,0
ORBCOMM FM36,1999-065E,2026-07-08T23:23:02.550048,14.39240740,.00036659,45.0392,56.1526,73.8436,286.2816,0,U,25984,999,39012,.23917266E-3,.606E-5,0
DMSP 5D-3 F15 (USA 147),1999-067A,2026-07-09T07:33:19.151136,14.17570395,.00089524,98.9951,229.1449,302.8951,111.4744,0,U,25991,999,37378,.51162701E-4,.58E-6,0
OPAL (OO-38),2000-004C,2026-07-09T13:58:21.055296,14.37973096,.0035479,100.1911,131.5357,332.9527,26.9805,0,U,26063,999,38650,.4153E-4,.67E-6,0
IMAGE,2000-017A,2026-07-06T05:56:59.074080,1.68666489,.74188478,94.2437,315.6222,285.6487,9.6557,0,U,26113,999,16182,0,-.11E-6,0
CLUSTER II-FM7 (SAMBA),2000-041A,2026-07-11T16:19:30.897408,0.44896530,.9082312,149.8437,55.3938,272.8334,359.6328,0,U,26410,999,2042,0,.12833E-3,0
CLUSTER II-FM8 (TANGO),2000-045B,2026-07-07T16:46:52.732416,0.44419476,.90843277,150.0768,55.7803,273.0277,2.3481,0,U,26464,999,2040,0,.817E-4,0
MEGSAT-1,2000-057B,2026-07-09T17:29:11.288832,15.05613554,.0042932,64.5506,356.8718,281.1945,78.4347,0,U,26546,999,40105,.13328E-3,.1782E-4,0
PHASE 3D (AO-40),2000-072B,2026-07-09T13:37:47.451648,1.25588822,.7932501,9.3971,347.4007,185.5135,152.0945,0,U,26609,999,11779,0,-.52E-6,0
ODIN,2001-007A,2026-07-09T01:36:31.230432,15.86075988,.00050447,97.3749,232.5556,142.3922,217.7703,0,U,26702,999,39285,.10279605E-2,.25951E-2,0
OMNI-M1,2001-026A,2026-07-02T00:09:17.717184,3.92402003,.00137998,44.8270,241.8483,56.1769,304.0224,0,U,26857,999,20615,0,.7E-7,0
PCSAT (NO-44),2001-043C,2026-07-09T17:15:48.886848,14.31963636,.0005974,67.0489,185.9927,266.2577,93.7842,0,U,26931,999,29367,.53843E-4,.61E-6,0
PROBA-1,2001-049B,2026-07-09T20:04:51.695616,15.07598868,.0055959,97.9606,200.1602,47.3405,313.2518,0,U,26958,999,34703,.13622E-3,.2076E-4,0
SPOT 5,2002-021A,2026-07-09T01:02:54.542976,14.54765544,.01289184,97.9837,227.9380,207.9039,151.5206,0,U,27421,999,26602,.50055815E-4,.19E-5,0
FENGYUN 1D,2002-024B,2026-07-09T20:27:13.915296,14.10227351,.0015491,98.9508,241.0781,175.1564,184.9759,0,U,27431,999,24267,.62788E-4,.67E-6,0
SAUDISAT 1C (SO-50),2002-058C,2026-07-09T01:41:29.154048,14.83090961,.0074702,64.5518,61.2774,258.4036,100.8678,0,U,27607,999,26770,.80073889E-4,.528E-5,0
CORIOLIS,2003-001A,2026-07-09T12:49:46.320096,14.19950705,.001468,98.7131,197.0783,144.6326,215.5827,0,U,27640,999,21739,.48552E-4,.6E-6,0
CUTE-1 (CO-55),2003-031E,2026-07-08T22:54:25.227360,14.24348882,.00106848,98.6739,198.2397,118.8005,241.4249,0,U,27844,999,19477,.10410026E-3,.197E-5,0
CUBESAT XI-IV (CO-57),2003-031J,2026-07-08T11:05:05.892000,14.23632050,.00102587,98.6772,197.4488,137.0463,223.1519,0,U,27848,999,19440,.99678022E-4,.184E-5,0
MOZHAETS 4 (RS22),2003-042A,2026-07-09T21:38:52.791360,14.73509643,.0010788,98.3481,15.9040,190.2727,278.6487,0,U,27939,999,21889,.16487E-3,.1018E-4,0
IRS-P6 (RESOURCESAT-1),2003-046A,2026-07-09T21:06:03.496032,14.36168837,.0062768,98.1899,226.2811,274.3177,189.3703,0,U,28051,999,18378,-.55314E-5,-.58E-6,0
SAUDISAT 2,2004-025F,2026-07-08T22:34:41.953440,14.56696036,.00237461,98.5515,190.4855,228.0122,131.9053,0,U,28371,999,16891,.47011469E-4,.161E-5,0
COSMOS 2407,2004-028A,2026-07-08T15:44:24.857664,13.76336274,.00388665,82.9591,58.9321,190.3745,223.9553,0,U,28380,999,10283,.20591836E-4,.35E-6,0
COSMOS 2414,2005-002A,2026-07-09T07:23:50.365248,13.87927814,.00386673,82.9485,26.9097,266.2547,93.4195,0,U,28521,999,8688,.29380343E-4,.5E-6,0
INMARSAT 4-F1,2005-009A,2026-07-09T17:55:14.892096,1.00271478,.0002584,5.1976,42.7761,72.8014,259.0201,0,U,28628,999,7789,0,.4E-6,0
HAMSAT (VO-52),2005-017B,2026-07-09T18:55:20.993088,15.09933228,.0017778,97.9908,214.8185,323.9746,36.0282,0,U,28650,999,15017,.17322E-3,.2748E-4,0
